{"type": "FeatureCollection", "features": [ {"type": "Feature", "properties": {"norad_id": 29973, "name": "FENGYUN 1C DEB", "group": "fengyun-1c-debris", "lat": 22.68163931740807, "lon": 168.51998434162692, "alt_km": 827.9356888035245, "timestamp": "2025-12-10T05:46:14.095061+00:00", "meta": {"OBJECT_NAME": "FENGYUN 1C DEB", "OBJECT_ID": "1999-025KX", "EPOCH": "2025-12-09T06:54:34.318080", "MEAN_MOTION": 14.0652646, "ECCENTRICITY": 0.0059163, "INCLINATION": 98.8424, "RA_OF_ASC_NODE": 343.8592, "ARG_OF_PERICENTER": 158.6196, "MEAN_ANOMALY": 217.7611, "EPHEMERIS_TYPE": 0, "CLASSIFICATION_TYPE": "U", "NORAD_CAT_ID": 29973, "ELEMENT_SET_NO": 999, "REV_AT_EPOCH": 96670, "BSTAR": 0.0011262, "MEAN_MOTION_DOT": 1.851e-05, "MEAN_MOTION_DDOT": 0}, "tle": {"line1": "1 29973U 99025KX  25343.28789720  .00001851  00000+0  11262-2 0  9993", "line2": "2 29973  98.8424 343.8592 0059163 158.6196 217.7611 14.06526460966708"}}, "geometry": {"type": "Point", "coordinates": [168.51998434162692, 22.68163931740807]}}, {"type": "Feature", "properties": {"norad_id": 29974, "name": "FENGYUN 1C DEB", "group": "fengyun-1c-debris", "lat": -58.142408188827204, "lon": 83.01702019902834, "alt_km": 878.7876184294846, "timestamp": "2025-12-10T05:46:14.095071+00:00", "meta": {"OBJECT_NAME": "FENGYUN 1C DEB", "OBJECT_ID": "1999-025KY", "EPOCH": "2025-12-09T17:11:30.537888", "MEAN_MOTION": 14.14827939, "ECCENTRICITY": 0.0046946, "INCLINATION": 98.8935, "RA_OF_ASC_NODE": 67.9008, "ARG_OF_PERICENTER": 90.6888, "MEAN_ANOMALY": 62.3414, "EPHEMERIS_TYPE": 0, "CLASSIFICATION_TYPE": "U", "NORAD_CAT_ID": 29974, "ELEMENT_SET_NO": 999, "REV_AT_EPOCH": 96882, "BSTAR": 0.0018558, "MEAN_MOTION_DOT": 3.576e-05, "MEAN_MOTION_DDOT": 0}, "tle": {"line1": "1 29974U 99025KY  25343.71632567  .00003576  00000+0  18558-2 0  9999", "line2": "2 29974  98.8935  67.9008 0046946  90.6888  62.3414 14.14827939968824"}}, "geometry": {"type": "Point", "coordinates": [83.01702019902834, -58.142408188827204]}}, {"type": "Feature", "properties": {"norad_id": 29975, "name": "FENGYUN 1C DEB", "group": "fengyun-1c-debris", "lat": 80.65373133988196, "lon": -64.17509300868377, "alt_km": 863.1556216195359, "timestamp": "2025-12-10T05:46:14.095081+00:00", "meta": {"OBJECT_NAME": "FENGYUN 1C DEB", "OBJECT_ID": "1999-025KZ", "EPOCH": "2025-12-09T02:07:12.607104", "MEAN_MOTION": 13.98024626, "ECCENTRICITY": 0.01138059, "INCLINATION": 99.3401, "RA_OF_ASC_NODE": 24.0906, "ARG_OF_PERICENTER": 23.6867, "MEAN_ANOMALY": 29.7505, "EPHEMERIS_TYPE": 0, "CLASSIFICATION_TYPE": "U", "NORAD_CAT_ID": 29975, "ELEMENT_SET_NO": 999, "REV_AT_EPOCH": 96386, "BSTAR": 8.4015265e-05, "MEAN_MOTION_DOT": 8e-07, "MEAN_MOTION_DDOT": 0}, "tle": {"line1": "1 29975U 99025KZ  25343.08834036  .00000080  00000+0  84015-4 0  9995", "line2": "2 29975  99.3401  24.0906 0113805  23.6867  29.7505 13.98024626963862"}}, "geometry": {"type": "Point", "coordinates": [-64.17509300868377, 80.65373133988196]}}, {"type": "Feature", "properties": {"norad_id": 29976, "name": "FENGYUN 1C DEB", "group": "fengyun-1c-debris", "lat": -80.0672128929857, "lon": 97.90164840179034, "alt_km": 723.1444614513957, "timestamp": "2025-12-10T05:46:14.095091+00:00", "meta": {"OBJECT_NAME": "FENGYUN 1C DEB", "OBJECT_ID": "1999-025LA", "EPOCH": "2025-12-09T12:08:37.668192", "MEAN_MOTION": 13.98104041, "ECCENTRICITY": 0.02675357, "INCLINATION": 98.9177, "RA_OF_ASC_NODE": 340.9017, "ARG_OF_PERICENTER": 248.501, "MEAN_ANOMALY": 281.5389, "EPHEMERIS_TYPE": 0, "CLASSIFICATION_TYPE": "U", "NORAD_CAT_ID": 29976, "ELEMENT_SET_NO": 999, "REV_AT_EPOCH": 96291, "BSTAR": 0.00037725217, "MEAN_MOTION_DOT": 6.83e-06, "MEAN_MOTION_DDOT": 0}, "tle": {"line1": "1 29976U 99025LA  25343.50599153  .00000683  00000+0  37725-3 0  9995", "line2": "2 29976  98.9177 340.9017 0267535 248.5010 281.5389 13.98104041962912"}}, "geometry": {"type": "Point", "coordinates": [97.90164840179034, -80.0672128929857]}}, {"type": "Feature", "properties": {"norad_id": 29977, "name": "FENGYUN 1C DEB", "group": "fengyun-1c-debris", "lat": 46.80640418843608, "lon": 35.5215119692081, "alt_km": 933.4050557261426, "timestamp": "2025-12-10T05:46:14.095101+00:00", "meta": {"OBJECT_NAME": "FENGYUN 1C DEB", "OBJECT_ID": "1999-025LB", "EPOCH": "2025-12-09T13:53:20.404032", "MEAN_MOTION": 14.05064499, "ECCENTRICITY": 0.0128515, "INCLINATION": 98.3958, "RA_OF_ASC_NODE": 205.8583, "ARG_OF_PERICENTER": 265.9632, "MEAN_ANOMALY": 122.2739, "EPHEMERIS_TYPE": 0, "CLASSIFICATION_TYPE": "U", "NORAD_CAT_ID": 29977, "ELEMENT_SET_NO": 999, "REV_AT_EPOCH": 96316, "BSTAR": 0.002059, "MEAN_MOTION_DOT": 3.534e-05, "MEAN_MOTION_DDOT": 0}, "tle": {"line1": "1 29977U 99025LB  25343.57870838  .00003534  00000+0  20590-2 0  9994", "line2": "2 29977  98.3958 205.8583 0128515 265.9632 122.2739 14.05064499963167"}}, "geometry": {"type": "Point", "coordinates": [35.5215119692081, 46.80640418843608]}}, {"type": "Feature", "properties": {"norad_id": 29978, "name": "FENGYUN 1C DEB", "group": "fengyun-1c-debris", "lat": -60.04389522365335, "lon": 50.80433449760817, "alt_km": 942.991444633637, "timestamp": "2025-12-10T05:46:14.095111+00:00", "meta": {"OBJECT_NAME": "FENGYUN 1C DEB", "OBJECT_ID": "1999-025LC", "EPOCH": "2025-12-09T15:17:51.347040", "MEAN_MOTION": 13.95906629, "ECCENTRICITY": 0.0076773, "INCLINATION": 99.0618, "RA_OF_ASC_NODE": 34.1355, "ARG_OF_PERICENTER": 60.6741, "MEAN_ANOMALY": 90.0325, "EPHEMERIS_TYPE": 0, "CLASSIFICATION_TYPE": "U", "NORAD_CAT_ID": 29978, "ELEMENT_SET_NO": 999, "REV_AT_EPOCH": 96273, "BSTAR": 3.069e-05, "MEAN_MOTION_DOT": 0, "MEAN_MOTION_DDOT": 0}, "tle": {"line1": "1 29978U 99025LC  25343.63739985  .00000000  00000+0  30690-4 0  9998", "line2": "2 29978  99.0618  34.1355 0076773  60.6741  90.0325 13.95906629962731"}}, "geometry": {"type": "Point", "coordinates": [50.80433449760817, -60.04389522365335]}}, {"type": "Feature", "properties": {"norad_id": 29979, "name": "FENGYUN 1C DEB", "group": "fengyun-1c-debris", "lat": 43.373115950372394, "lon": -0.43506252024656217, "alt_km": 846.6770922061814, "timestamp": "2025-12-10T05:46:14.095121+00:00", "meta": {"OBJECT_NAME": "FENGYUN 1C DEB", "OBJECT_ID": "1999-025LD", "EPOCH": "2025-12-09T01:11:22.001280", "MEAN_MOTION": 14.25950445, "ECCENTRICITY": 0.01073771, "INCLINATION": 98.3706, "RA_OF_ASC_NODE": 6.4231, "ARG_OF_PERICENTER": 173.7509, "MEAN_ANOMALY": 241.4824, "EPHEMERIS_TYPE": 0, "CLASSIFICATION_TYPE": "U", "NORAD_CAT_ID": 29979, "ELEMENT_SET_NO": 999, "REV_AT_EPOCH": 98021, "BSTAR": 0.00062665926, "MEAN_MOTION_DOT": 1.546e-05, "MEAN_MOTION_DDOT": 0}, "tle": {"line1": "1 29979U 99025LD  25343.04956020  .00001546  00000+0  62666-3 0  9998", "line2": "2 29979  98.3706   6.4231 0107377 173.7509 241.4824 14.25950445980218"}}, "geometry": {"type": "Point", "coordinates": [-0.43506252024656217, 43.373115950372394]}}, {"type": "Feature", "properties": {"norad_id": 29980, "name": "FENGYUN 1C DEB", "group": "fengyun-1c-debris", "lat": 29.533296074546598, "lon": -21.577987692825403, "alt_km": 886.265291076128, "timestamp": "2025-12-10T05:46:14.095132+00:00", "meta": {"OBJECT_NAME": "FENGYUN 1C DEB", "OBJECT_ID": "1999-025LE", "EPOCH": "2025-12-09T10:24:26.571168", "MEAN_MOTION": 14.06311598, "ECCENTRICITY": 0.00868057, "INCLINATION": 98.5514, "RA_OF_ASC_NODE": 152.7697, "ARG_OF_PERICENTER": 257.2764, "MEAN_ANOMALY": 131.3681, "EPHEMERIS_TYPE": 0, "CLASSIFICATION_TYPE": "U", "NORAD_CAT_ID": 29980, "ELEMENT_SET_NO": 999, "REV_AT_EPOCH": 96946, "BSTAR": 0.00028544851, "MEAN_MOTION_DOT": 4.45e-06, "MEAN_MOTION_DDOT": 0}, "tle": {"line1": "1 29980U 99025LE  25343.43364087  .00000445  00000+0  28545-3 0  9994", "line2": "2 29980  98.5514 152.7697 0086805 257.2764 131.3681 14.06311598969464"}}, "geometry": {"type": "Point", "coordinates": [-21.577987692825403, 29.533296074546598]}}, {"type": "Feature", "properties": {"norad_id": 29982, "name": "FENGYUN 1C DEB", "group": "fengyun-1c-debris", "lat": 13.094753281672288, "lon": 162.93778262455538, "alt_km": 652.5603229910676, "timestamp": "2025-12-10T05:46:14.095142+00:00", "meta": {"OBJECT_NAME": "FENGYUN 1C DEB", "OBJECT_ID": "1999-025LG", "EPOCH": "2025-12-09T11:49:06.318336", "MEAN_MOTION": 14.66839313, "ECCENTRICITY": 0.01219776, "INCLINATION": 99.402, "RA_OF_ASC_NODE": 164.2899, "ARG_OF_PERICENTER": 298.2176, "MEAN_ANOMALY": 86.1345, "EPHEMERIS_TYPE": 0, "CLASSIFICATION_TYPE": "U", "NORAD_CAT_ID": 29982, "ELEMENT_SET_NO": 999, "REV_AT_EPOCH": 236, "BSTAR": 0.0010058116, "MEAN_MOTION_DOT": 6.211e-05, "MEAN_MOTION_DDOT": 0}, "tle": {"line1": "1 29982U 99025LG  25343.49243424  .00006211  00000+0  10058-2 0  9999", "line2": "2 29982  99.4020 164.2899 0121977 298.2176  86.1345 14.66839313  2369"}}, "geometry": {"type": "Point", "coordinates": [162.93778262455538, 13.094753281672288]}}, {"type": "Feature", "properties": {"norad_id": 29985, "name": "FENGYUN 1C DEB", "group": "fengyun-1c-debris", "lat": 53.22427866185453, "lon": -12.456961135385713, "alt_km": 872.5070406202403, "timestamp": "2025-12-10T05:46:14.095152+00:00", "meta": {"OBJECT_NAME": "FENGYUN 1C DEB", "OBJECT_ID": "1999-025LK", "EPOCH": "2025-12-09T20:07:09.323040", "MEAN_MOTION": 14.10323141, "ECCENTRICITY": 0.0028006, "INCLINATION": 98.7107, "RA_OF_ASC_NODE": 358.9897, "ARG_OF_PERICENTER": 217.4108, "MEAN_ANOMALY": 316.2973, "EPHEMERIS_TYPE": 0, "CLASSIFICATION_TYPE": "U", "NORAD_CAT_ID": 29985, "ELEMENT_SET_NO": 999, "REV_AT_EPOCH": 97307, "BSTAR": 4.9633e-05, "MEAN_MOTION_DOT": 4.6e-07, "MEAN_MOTION_DDOT": 0}, "tle": {"line1": "1 29985U 99025LK  25343.83830235  .00000046  00000+0  49633-4 0  9995", "line2": "2 29985  98.7107 358.9897 0028006 217.4108 316.2973 14.10323141973072"}}, "geometry": {"type": "Point", "coordinates": [-12.456961135385713, 53.22427866185453]}}]}